HONGHU-3_L_00002014-43
1 26059U 26919JJ  26070.40780093  .00000000  00000+0  00000-0 0  9994
2 26059  45.0000 234.0000 0000000   0.0000 160.5600 15.73115184    17
HONGHU-3_L_00002014-44
1 26060U 23002YK  26070.40780093  .00000000  00000+0  00000-0 0  9996
2 26060  45.0000 234.0000 0000000   0.0000 164.1600 15.73115184    19
HONGHU-3_L_00002014-45
1 26061U 23192XX  26070.40780093  .00000000  00000+0  00000-0 0  9997
2 26061  45.0000 234.0000 0000000   0.0000 167.7600 15.73115184    19
HONGHU-3_L_00002014-46
1 26062U 23093AX  26070.40780093  .00000000  00000+0  00000-0 0  9998
2 26062  45.0000 234.0000 0000000   0.0000 171.3600 15.73115184    11
HONGHU-3_L_00002014-47
1 26063U 26683IR  26070.40780093  .00000000  00000+0  00000-0 0  9997
2 26063  45.0000 234.0000 0000000   0.0000 174.9600 15.73115184    11
HONGHU-3_L_00002014-48
1 26064U 25087BO  26070.40780093  .00000000  00000+0  00000-0 0  9995
2 26064  45.0000 234.0000 0000000   0.0000 178.5600 15.73115184    12
HONGHU-3_L_00002014-49
1 26065U 23338CX  26070.40780093  .00000000  00000+0  00000-0 0  9993
2 26065  45.0000 234.0000 0000000   0.0000 182.1600 15.73115184    14
HONGHU-3_L_00002014-50
1 26066U 23874TS  26070.40780093  .00000000  00000+0  00000-0 0  9999
2 26066  45.0000 234.0000 0000000   0.0000 185.7600 15.73115184    14
HONGHU-3_L_00002014-51
1 26067U 26635KM  26070.40780093  .00000000  00000+0  00000-0 0  9998
2 26067  45.0000 234.0000 0000000   0.0000 189.3600 15.73115184    15
HONGHU-3_L_00002014-52
1 26068U 23209AJ  26070.40780093  .00000000  00000+0  00000-0 0  9993
2 26068  45.0000 234.0000 0000000   0.0000 192.9600 15.73115184    16
HONGHU-3_L_00002014-53
1 26069U 23580T   26070.40780093  .00000000  00000+0  00000-0 0  9996
2 26069  45.0000 234.0000 0000000   0.0000 196.5600 15.73115184    17
HONGHU-3_L_00002014-54
1 26070U 24662TZ  26070.40780093  .00000000  00000+0  00000-0 0  9990
2 26070  45.0000 234.0000 0000000   0.0000 200.1600 15.73115184    11
HONGHU-3_L_00002014-55
1 26071U 23276PU  26070.40780093  .00000000  00000+0  00000-0 0  9991
2 26071  45.0000 234.0000 0000000   0.0000 203.7600 15.73115184    11
HONGHU-3_L_00002014-56
1 26072U 23002DX  26070.40780093  .00000000  00000+0  00000-0 0  9999
2 26072  45.0000 234.0000 0000000   0.0000 207.3600 15.73115184    12
HONGHU-3_L_00002014-57
1 26073U 22531TD  26070.40780093  .00000000  00000+0  00000-0 0  9996
2 26073  45.0000 234.0000 0000000   0.0000 210.9600 15.73115184    13
HONGHU-3_L_00002014-58
1 26074U 25049JU  26070.40780093  .00000000  00000+0  00000-0 0  9994
2 26074  45.0000 234.0000 0000000   0.0000 214.5600 15.73115184    14
HONGHU-3_L_00002014-59
1 26075U 24517AE  26070.40780093  .00000000  00000+0  00000-0 0  9994
2 26075  45.0000 234.0000 0000000   0.0000 218.1600 15.73115184    15
HONGHU-3_L_00002014-60
1 26076U 26281AS  26070.40780093  .00000000  00000+0  00000-0 0  9995
2 26076  45.0000 234.0000 0000000   0.0000 221.7600 15.73115184    16
HONGHU-3_L_00002014-61
1 26077U 26464NH  26070.40780093  .00000000  00000+0  00000-0 0  9999
2 26077  45.0000 234.0000 0000000   0.0000 225.3600 15.73115184    17
HONGHU-3_L_00002014-62
1 26078U 26708FB  26070.40780093  .00000000  00000+0  00000-0 0  9991
2 26078  45.0000 234.0000 0000000   0.0000 228.9600 15.73115184    17
HONGHU-3_L_00002014-63
1 26079U 23369ID  26070.40780093  .00000000  00000+0  00000-0 0  9992
2 26079  45.0000 234.0000 0000000   0.0000 232.5600 15.73115184    19
HONGHU-3_L_00002014-64
1 26080U 26264AQ  26070.40780093  .00000000  00000+0  00000-0 0  9991
2 26080  45.0000 234.0000 0000000   0.0000 236.1600 15.73115184    11
HONGHU-3_L_00002014-65
1 26081U 25444WQ  26070.40780093  .00000000  00000+0  00000-0 0  9991
2 26081  45.0000 234.0000 0000000   0.0000 239.7600 15.73115184    11
HONGHU-3_L_00002014-66
1 26082U 24340HH  26070.40780093  .00000000  00000+0  00000-0 0  9996
2 26082  45.0000 234.0000 0000000   0.0000 243.3600 15.73115184    13
HONGHU-3_L_00002014-67
1 26083U 23066VD  26070.40780093  .00000000  00000+0  00000-0 0  9991
2 26083  45.0000 234.0000 0000000   0.0000 246.9600 15.73115184    13
HONGHU-3_L_00002014-68
1 26084U 24229HK  26070.40780093  .00000000  00000+0  00000-0 0  9994
2 26084  45.0000 234.0000 0000000   0.0000 250.5600 15.73115184    15
HONGHU-3_L_00002014-69
1 26085U 24636GR  26070.40780093  .00000000  00000+0  00000-0 0  9997
2 26085  45.0000 234.0000 0000000   0.0000 254.1600 15.73115184    16
HONGHU-3_L_00002014-70
1 26086U 23581IS  26070.40780093  .00000000  00000+0  00000-0 0  9996
2 26086  45.0000 234.0000 0000000   0.0000 257.7600 15.73115184    16
HONGHU-3_L_00002014-71
1 26087U 22672IJ  26070.40780093  .00000000  00000+0  00000-0 0  9997
2 26087  45.0000 234.0000 0000000   0.0000 261.3600 15.73115184    18
HONGHU-3_L_00002014-72
1 26088U 26275VL  26070.40780093  .00000000  00000+0  00000-0 0  9991
2 26088  45.0000 234.0000 0000000   0.0000 264.9600 15.73115184    18
HONGHU-3_L_00002014-73
1 26089U 25106CJ  26070.40780093  .00000000  00000+0  00000-0 0  9994
2 26089  45.0000 234.0000 0000000   0.0000 268.5600 15.73115184    19
HONGHU-3_L_00002014-74
1 26090U 23816FZ  26070.40780093  .00000000  00000+0  00000-0 0  9992
2 26090  45.0000 234.0000 0000000   0.0000 272.1600 15.73115184    12
HONGHU-3_L_00002014-75
1 26091U 25141LF  26070.40780093  .00000000  00000+0  00000-0 0  9996
2 26091  45.0000 234.0000 0000000   0.0000 275.7600 15.73115184    12
HONGHU-3_L_00002014-76
1 26092U 23403UC  26070.40780093  .00000000  00000+0  00000-0 0  9996
2 26092  45.0000 234.0000 0000000   0.0000 279.3600 15.73115184    13
HONGHU-3_L_00002014-77
1 26093U 24338UK  26070.40780093  .00000000  00000+0  00000-0 0  9995
2 26093  45.0000 234.0000 0000000   0.0000 282.9600 15.73115184    14
HONGHU-3_L_00002014-78
1 26094U 23769BE  26070.40780093  .00000000  00000+0  00000-0 0  9993
2 26094  45.0000 234.0000 0000000   0.0000 286.5600 15.73115184    15
HONGHU-3_L_00002014-79
1 26095U 25554OO  26070.40780093  .00000000  00000+0  00000-0 0  9998
2 26095  45.0000 234.0000 0000000   0.0000 290.1600 15.73115184    17
HONGHU-3_L_00002014-80
1 26096U 23703QJ  26070.40780093  .00000000  00000+0  00000-0 0  9993
2 26096  45.0000 234.0000 0000000   0.0000 293.7600 15.73115184    17
HONGHU-3_L_00002014-81
1 26097U 25495FC  26070.40780093  .00000000  00000+0  00000-0 0  9994
2 26097  45.0000 234.0000 0000000   0.0000 297.3600 15.73115184    18
HONGHU-3_L_00002014-82
1 26098U 26456R   26070.40780093  .00000000  00000+0  00000-0 0  9993
2 26098  45.0000 234.0000 0000000   0.0000 300.9600 15.73115184    10
HONGHU-3_L_00002014-83
1 26099U 22466OO  26070.40780093  .00000000  00000+0  00000-0 0  9991
2 26099  45.0000 234.0000 0000000   0.0000 304.5600 15.73115184    11
HONGHU-3_L_00002014-84
1 26100U 23564IY  26070.40780093  .00000000  00000+0  00000-0 0  9994
2 26100  45.0000 234.0000 0000000   0.0000 308.1600 15.73115184    14
HONGHU-3_L_00002014-85
1 26101U 25170DD  26070.40780093  .00000000  00000+0  00000-0 0  9990
2 26101  45.0000 234.0000 0000000   0.0000 311.7600 15.73115184    15
HONGHU-3_L_00002014-86
1 26102U 26920HF  26070.40780093  .00000000  00000+0  00000-0 0  9995
2 26102  45.0000 234.0000 0000000   0.0000 315.3600 15.73115184    16
HONGHU-3_L_00002014-87
1 26103U 24666XG  26070.40780093  .00000000  00000+0  00000-0 0  9991
2 26103  45.0000 234.0000 0000000   0.0000 318.9600 15.73115184    16
HONGHU-3_L_00002014-88
1 26104U 24180SU  26070.40780093  .00000000  00000+0  00000-0 0  9993
2 26104  45.0000 234.0000 0000000   0.0000 322.5600 15.73115184    18
HONGHU-3_L_00002014-89
1 26105U 22299XP  26070.40780093  .00000000  00000+0  00000-0 0  9993
2 26105  45.0000 234.0000 0000000   0.0000 326.1600 15.73115184    19
HONGHU-3_L_00002014-90
1 26106U 22407YE  26070.40780093  .00000000  00000+0  00000-0 0  9995
2 26106  45.0000 234.0000 0000000   0.0000 329.7600 15.73115184    19
HONGHU-3_L_00002014-91
1 26107U 25308II  26070.40780093  .00000000  00000+0  00000-0 0  9999
2 26107  45.0000 234.0000 0000000   0.0000 333.3600 15.73115184    11
HONGHU-3_L_00002014-92
1 26108U 22861NC  26070.40780093  .00000000  00000+0  00000-0 0  9991
2 26108  45.0000 234.0000 0000000   0.0000 336.9600 15.73115184    11
HONGHU-3_L_00002014-93
1 26109U 25101ZT  26070.40780093  .00000000  00000+0  00000-0 0  9992
2 26109  45.0000 234.0000 0000000   0.0000 340.5600 15.73115184    13
HONGHU-3_L_00002014-94
1 26110U 22207GR  26070.40780093  .00000000  00000+0  00000-0 0  9998
2 26110  45.0000 234.0000 0000000   0.0000 344.1600 15.73115184    15
HONGHU-3_L_00002014-95
1 26111U 24106HG  26070.40780093  .00000000  00000+0  00000-0 0  9999
2 26111  45.0000 234.0000 0000000   0.0000 347.7600 15.73115184    15
HONGHU-3_L_00002014-96
1 26112U 24593UO  26070.40780093  .00000000  00000+0  00000-0 0  9990
2 26112  45.0000 234.0000 0000000   0.0000 351.3600 15.73115184    17
HONGHU-3_L_00002014-97
1 26113U 25356OC  26070.40780093  .00000000  00000+0  00000-0 0  9999
2 26113  45.0000 234.0000 0000000   0.0000 354.9600 15.73115184    17
HONGHU-3_L_00002014-98
1 26114U 26304QB  26070.40780093  .00000000  00000+0  00000-0 0  9994
2 26114  45.0000 234.0000 0000000   0.0000 358.5600 15.73115184    18
HONGHU-3_L_00002014-99
1 26115U 26294MC  26070.40780093  .00000000  00000+0  00000-0 0  9993
2 26115  45.0000 234.0000 0000000   0.0000   2.1600 15.73115184    11
HONGHU-3_L_00002014-100
1 26116U 26170AC  26070.40780093  .00000000  00000+0  00000-0 0  9997
2 26116  45.0000 234.0000 0000000   0.0000   5.7600 15.73115184    11
HONGHU-3_L_00002015-01
1 26117U 22434WT  26070.40780093  .00000000  00000+0  00000-0 0  9997
2 26117  45.0000 252.0000 0000000   0.0000  10.0800 15.73115184    13
HONGHU-3_L_00002015-02
1 26118U 24090H   26070.40780093  .00000000  00000+0  00000-0 0  9998
2 26118  45.0000 252.0000 0000000   0.0000  13.6800 15.73115184    13
HONGHU-3_L_00002015-03
1 26119U 25106BX  26070.40780093  .00000000  00000+0  00000-0 0  9998
2 26119  45.0000 252.0000 0000000   0.0000  17.2800 15.73115184    14
